{"type": "FeatureCollection", "features": [ {"type": "Feature", "properties": {"norad_id": 37216, "name": "COSMO-SKYMED 4", "group": "resource", "lat": 80.77475222002795, "lon": 117.85088822334832, "alt_km": 614.1002982239561, "timestamp": "2025-12-21T03:56:50.511416+00:00", "meta": {"OBJECT_NAME": "COSMO-SKYMED 4", "OBJECT_ID": "2010-060A", "EPOCH": "2025-12-20T19:27:47.693952", "MEAN_MOTION": 14.82156261, "ECCENTRICITY": 0.0001435, "INCLINATION": 97.8799, "RA_OF_ASC_NODE": 176.0124, "ARG_OF_PERICENTER": 83.2205, "MEAN_ANOMALY": 276.9171, "EPHEMERIS_TYPE": 0, "CLASSIFICATION_TYPE": "U", "NORAD_CAT_ID": 37216, "ELEMENT_SET_NO": 999, "REV_AT_EPOCH": 81814, "BSTAR": 0.00014978, "MEAN_MOTION_DOT": 1.14e-05, "MEAN_MOTION_DDOT": 0}, "tle": {"line1": "1 37216U 10060A   25354.81096868  .00001140  00000+0  14978-3 0  9998", "line2": "2 37216  97.8799 176.0124 0001435  83.2205 276.9171 14.82156261818145"}}, "geometry": {"type": "Point", "coordinates": [117.85088822334832, 80.77475222002795]}}, {"type": "Feature", "properties": {"norad_id": 37387, "name": "RESOURCESAT-2", "group": "resource", "lat": 16.474629763424648, "lon": 56.05636088807015, "alt_km": 816.1428131424409, "timestamp": "2025-12-21T03:56:50.511425+00:00", "meta": {"OBJECT_NAME": "RESOURCESAT-2", "OBJECT_ID": "2011-015A", "EPOCH": "2025-12-20T19:25:23.901888", "MEAN_MOTION": 14.21600185, "ECCENTRICITY": 0.0006051, "INCLINATION": 98.7866, "RA_OF_ASC_NODE": 58.3245, "ARG_OF_PERICENTER": 20.9139, "MEAN_ANOMALY": 339.2285, "EPHEMERIS_TYPE": 0, "CLASSIFICATION_TYPE": "U", "NORAD_CAT_ID": 37387, "ELEMENT_SET_NO": 999, "REV_AT_EPOCH": 76083, "BSTAR": 6.2183e-05, "MEAN_MOTION_DOT": 9.2e-07, "MEAN_MOTION_DDOT": 0}, "tle": {"line1": "1 37387U 11015A   25354.80930442  .00000092  00000+0  62183-4 0  9999", "line2": "2 37387  98.7866  58.3245 0006051  20.9139 339.2285 14.21600185760831"}}, "geometry": {"type": "Point", "coordinates": [56.05636088807015, 16.474629763424648]}}, {"type": "Feature", "properties": {"norad_id": 37781, "name": "HAIYANG-2A", "group": "resource", "lat": -29.413393036505354, "lon": 170.6471203860831, "alt_km": 974.6989981483866, "timestamp": "2025-12-21T03:56:50.511435+00:00", "meta": {"OBJECT_NAME": "HAIYANG-2A", "OBJECT_ID": "2011-043A", "EPOCH": "2025-12-20T19:58:02.360064", "MEAN_MOTION": 13.78835952, "ECCENTRICITY": 0.0001633, "INCLINATION": 99.337, "RA_OF_ASC_NODE": 355.6418, "ARG_OF_PERICENTER": 72.7282, "MEAN_ANOMALY": 287.4048, "EPHEMERIS_TYPE": 0, "CLASSIFICATION_TYPE": "U", "NORAD_CAT_ID": 37781, "ELEMENT_SET_NO": 999, "REV_AT_EPOCH": 72210, "BSTAR": 1.169e-05, "MEAN_MOTION_DOT": -3.2e-07, "MEAN_MOTION_DDOT": 0}, "tle": {"line1": "1 37781U 11043A   25354.83197176 -.00000032  00000+0  11690-4 0  9992", "line2": "2 37781  99.3370 355.6418 0001633  72.7282 287.4048 13.78835952722108"}}, "geometry": {"type": "Point", "coordinates": [170.6471203860831, -29.413393036505354]}}, {"type": "Feature", "properties": {"norad_id": 37791, "name": "RASAT", "group": "resource", "lat": 35.61231736239814, "lon": -89.87346729697934, "alt_km": 669.0351583828942, "timestamp": "2025-12-21T03:56:50.511444+00:00", "meta": {"OBJECT_NAME": "RASAT", "OBJECT_ID": "2011-044D", "EPOCH": "2025-12-20T21:03:18.022752", "MEAN_MOTION": 14.67919529, "ECCENTRICITY": 0.0021556, "INCLINATION": 98.0651, "RA_OF_ASC_NODE": 84.0146, "ARG_OF_PERICENTER": 40.4523, "MEAN_ANOMALY": 26.489, "EPHEMERIS_TYPE": 0, "CLASSIFICATION_TYPE": "U", "NORAD_CAT_ID": 37791, "ELEMENT_SET_NO": 999, "REV_AT_EPOCH": 76702, "BSTAR": 6.428e-05, "MEAN_MOTION_DOT": 3.2e-06, "MEAN_MOTION_DDOT": 0}, "tle": {"line1": "1 37791U 11044D   25354.87729193  .00000320  00000+0  64280-4 0  9990", "line2": "2 37791  98.0651  84.0146 0021556  40.4523  26.4890 14.67919529767022"}}, "geometry": {"type": "Point", "coordinates": [-89.87346729697934, 35.61231736239814]}}, {"type": "Feature", "properties": {"norad_id": 37841, "name": "SRMSAT", "group": "resource", "lat": 13.436493035794046, "lon": -164.16602589408726, "alt_km": 850.1121669671729, "timestamp": "2025-12-21T03:56:50.511453+00:00", "meta": {"OBJECT_NAME": "SRMSAT", "OBJECT_ID": "2011-058D", "EPOCH": "2025-12-20T12:38:09.085920", "MEAN_MOTION": 14.11513957, "ECCENTRICITY": 0.00119464, "INCLINATION": 19.9724, "RA_OF_ASC_NODE": 60.8238, "ARG_OF_PERICENTER": 39.0399, "MEAN_ANOMALY": 89.0233, "EPHEMERIS_TYPE": 0, "CLASSIFICATION_TYPE": "U", "NORAD_CAT_ID": 37841, "ELEMENT_SET_NO": 999, "REV_AT_EPOCH": 73254, "BSTAR": 6.676578e-05, "MEAN_MOTION_DOT": 3.88e-06, "MEAN_MOTION_DDOT": 0}, "tle": {"line1": "1 37841U 11058D   25354.52649405  .00000388  00000+0  66766-4 0  9995", "line2": "2 37841  19.9724  60.8238 0011946  39.0399  89.0233 14.11513957732541"}}, "geometry": {"type": "Point", "coordinates": [-164.16602589408726, 13.436493035794046]}}, {"type": "Feature", "properties": {"norad_id": 38012, "name": "PLEIADES 1A", "group": "resource", "lat": 15.387394498381889, "lon": 65.53394291577796, "alt_km": 698.1518503346924, "timestamp": "2025-12-21T03:56:50.511462+00:00", "meta": {"OBJECT_NAME": "PLEIADES 1A", "OBJECT_ID": "2011-076F", "EPOCH": "2025-12-20T20:15:59.856192", "MEAN_MOTION": 14.58567985, "ECCENTRICITY": 0.0001153, "INCLINATION": 98.1821, "RA_OF_ASC_NODE": 67.4882, "ARG_OF_PERICENTER": 74.9398, "MEAN_ANOMALY": 61.2979, "EPHEMERIS_TYPE": 0, "CLASSIFICATION_TYPE": "U", "NORAD_CAT_ID": 38012, "ELEMENT_SET_NO": 999, "REV_AT_EPOCH": 74599, "BSTAR": 5.7193e-05, "MEAN_MOTION_DOT": 2.2e-06, "MEAN_MOTION_DDOT": 0}, "tle": {"line1": "1 38012U 11076F   25354.84444278  .00000220  00000+0  57193-4 0  9991", "line2": "2 38012  98.1821  67.4882 0001153  74.9398  61.2979 14.58567985745996"}}, "geometry": {"type": "Point", "coordinates": [65.53394291577796, 15.387394498381889]}}, {"type": "Feature", "properties": {"norad_id": 38038, "name": "ZIYUAN 1-02C (ZY 1-02C)", "group": "resource", "lat": 20.8452384031081, "lon": 57.78476319820981, "alt_km": 765.3967178243729, "timestamp": "2025-12-21T03:56:50.511472+00:00", "meta": {"OBJECT_NAME": "ZIYUAN 1-02C (ZY 1-02C)", "OBJECT_ID": "2011-079A", "EPOCH": "2025-12-20T21:34:55.975872", "MEAN_MOTION": 14.38019773, "ECCENTRICITY": 0.0007454, "INCLINATION": 98.433, "RA_OF_ASC_NODE": 60.7627, "ARG_OF_PERICENTER": 116.8988, "MEAN_ANOMALY": 332.1887, "EPHEMERIS_TYPE": 0, "CLASSIFICATION_TYPE": "U", "NORAD_CAT_ID": 38038, "ELEMENT_SET_NO": 999, "REV_AT_EPOCH": 73358, "BSTAR": 7.3745e-05, "MEAN_MOTION_DOT": 1.8e-06, "MEAN_MOTION_DDOT": 0}, "tle": {"line1": "1 38038U 11079A   25354.89925898  .00000180  00000+0  73745-4 0  9995", "line2": "2 38038  98.4330  60.7627 0007454 116.8988 332.1887 14.38019773733581"}}, "geometry": {"type": "Point", "coordinates": [57.78476319820981, 20.8452384031081]}}, {"type": "Feature", "properties": {"norad_id": 38338, "name": "ARIRANG-3 (KOMPSAT-3)", "group": "resource", "lat": 8.53090249536935, "lon": -51.44214052343959, "alt_km": 687.6619331638449, "timestamp": "2025-12-21T03:56:50.511481+00:00", "meta": {"OBJECT_NAME": "ARIRANG-3 (KOMPSAT-3)", "OBJECT_ID": "2012-025B", "EPOCH": "2025-12-20T19:41:37.311936", "MEAN_MOTION": 14.61722211, "ECCENTRICITY": 0.0004881, "INCLINATION": 98.3334, "RA_OF_ASC_NODE": 309.4712, "ARG_OF_PERICENTER": 310.4797, "MEAN_ANOMALY": 49.5978, "EPHEMERIS_TYPE": 0, "CLASSIFICATION_TYPE": "U", "NORAD_CAT_ID": 38338, "ELEMENT_SET_NO": 999, "REV_AT_EPOCH": 72528, "BSTAR": 8.3908e-05, "MEAN_MOTION_DOT": 3.7e-06, "MEAN_MOTION_DDOT": 0}, "tle": {"line1": "1 38338U 12025B   25354.82057074  .00000370  00000+0  83908-4 0  9998", "line2": "2 38338  98.3334 309.4712 0004881 310.4797  49.5978 14.61722211725288"}}, "geometry": {"type": "Point", "coordinates": [-51.44214052343959, 8.53090249536935]}}, {"type": "Feature", "properties": {"norad_id": 38709, "name": "EXACTVIEW-1 (ADS-1B)", "group": "resource", "lat": -27.650935856334282, "lon": 108.47459993957, "alt_km": 807.1338940100977, "timestamp": "2025-12-21T03:56:50.511490+00:00", "meta": {"OBJECT_NAME": "EXACTVIEW-1 (ADS-1B)", "OBJECT_ID": "2012-039C", "EPOCH": "2025-12-20T12:54:39.553920", "MEAN_MOTION": 14.2491086, "ECCENTRICITY": 0.0010285, "INCLINATION": 98.9639, "RA_OF_ASC_NODE": 103.0916, "ARG_OF_PERICENTER": 331.1371, "MEAN_ANOMALY": 28.9238, "EPHEMERIS_TYPE": 0, "CLASSIFICATION_TYPE": "U", "NORAD_CAT_ID": 38709, "ELEMENT_SET_NO": 999, "REV_AT_EPOCH": 69726, "BSTAR": 6.1439e-05, "MEAN_MOTION_DOT": 9.7e-07, "MEAN_MOTION_DDOT": 0}, "tle": {"line1": "1 38709U 12039C   25354.53795780  .00000097  00000+0  61439-4 0  9997", "line2": "2 38709  98.9639 103.0916 0010285 331.1371  28.9238 14.24910860697265"}}, "geometry": {"type": "Point", "coordinates": [108.47459993957, -27.650935856334282]}}, {"type": "Feature", "properties": {"norad_id": 38755, "name": "SPOT 6", "group": "resource", "lat": -59.65540811436024, "lon": 73.97648294099334, "alt_km": 705.7228741578638, "timestamp": "2025-12-21T03:56:50.511500+00:00", "meta": {"OBJECT_NAME": "SPOT 6", "OBJECT_ID": "2012-047A", "EPOCH": "2025-12-20T19:59:34.186848", "MEAN_MOTION": 14.58538432, "ECCENTRICITY": 0.0001328, "INCLINATION": 98.1569, "RA_OF_ASC_NODE": 59.4687, "ARG_OF_PERICENTER": 78.248, "MEAN_ANOMALY": 281.8868, "EPHEMERIS_TYPE": 0, "CLASSIFICATION_TYPE": "U", "NORAD_CAT_ID": 38755, "ELEMENT_SET_NO": 999, "REV_AT_EPOCH": 70705, "BSTAR": 4.1505e-05, "MEAN_MOTION_DOT": 1.48e-06, "MEAN_MOTION_DDOT": 0}, "tle": {"line1": "1 38755U 12047A   25354.83303457  .00000148  00000+0  41505-4 0  9995", "line2": "2 38755  98.1569  59.4687 0001328  78.2480 281.8868 14.58538432707053"}}, "geometry": {"type": "Point", "coordinates": [73.97648294099334, -59.65540811436024]}}]}